[
  {
    "Kenmerk": 80305396,
    "Actie": "Lossen",
    "Klantnr": "0000011637",
    "Naam": "Don Morris Palvelut Oy",
    "Land": "FIN",
    "Straat": "Klaneettitie 12",
    "Postcode": 420,
    "Plaats": "HELSINKI",
    "Gewicht": 1056,
    "Euro DV": 2,
    "Blok DV": 0
  },
  {
    "Kenmerk": 80305560,
    "Actie": "Lossen",
    "Klantnr": "0000020523",
    "Naam": "Aminah OY",
    "Land": "FIN",
    "Straat": "Luutnantintie 5",
    "Postcode": 410,
    "Plaats": "HELSINKI",
    "Gewicht": 746,
    "Euro DV": 0,
    "Blok DV": 1
  },
  {
    "Kenmerk": 80305398,
    "Actie": "Lossen",
    "Klantnr": "D8815",
    "Naam": "Jaihe Oy",
    "Land": "FIN",
    "Straat": "Putkitie 6",
    "Postcode": 880,
    "Plaats": "HELSINKI",
    "Gewicht": 486,
    "Euro DV": 0,
    "Blok DV": 1
  },
  {
    "Kenmerk": 80305515,
    "Actie": "Lossen",
    "Klantnr": "0000021030",
    "Naam": "Aurit Elintarvike",
    "Land": "FIN",
    "Straat": "Hameentie 5, b",
    "Postcode": 530,
    "Plaats": "HELSINKI",
    "Gewicht": 795,
    "Euro DV": 0,
    "Blok DV": 1
  },
  {
    "Kenmerk": 80305537,
    "Actie": "Lossen",
    "Klantnr": "0000013141",
    "Naam": "DPY Trading Oy",
    "Land": "FIN",
    "Straat": "Komeetankatu 1",
    "Postcode": 2210,
    "Plaats": "ESPOO",
    "Gewicht": 760,
    "Euro DV": 0,
    "Blok DV": 1
  },
  {
    "Kenmerk": 80305424,
    "Actie": "Lossen",
    "Klantnr": "A16506",
    "Naam": "Xiao Hua Oy",
    "Land": "FIN",
    "Straat": "Paalukylänpolku 9",
    "Postcode": 1600,
    "Plaats": "VANTAA",
    "Gewicht": 654,
    "Euro DV": 0,
    "Blok DV": 1
  },
  {
    "Kenmerk": 80305559,
    "Actie": "Lossen",
    "Klantnr": "B21812",
    "Naam": "Atusa Cash & Curry Oy",
    "Land": "FIN",
    "Straat": "JOKELANKATU 5",
    "Postcode": 5800,
    "Plaats": "HYVINKAA",
    "Gewicht": 546,
    "Euro DV": 1,
    "Blok DV": 0
  },
  {
    "Kenmerk": 80305258,
    "Actie": "Lossen",
    "Klantnr": "A9354",
    "Naam": "Bai Wei Asian Shop",
    "Land": "FIN",
    "Straat": "Kylmäsuonkatu 1",
    "Postcode": 33720,
    "Plaats": "TAMPERE",
    "Gewicht": 926,
    "Euro DV": 0,
    "Blok DV": 1
  },
  {
    "Kenmerk": 80305399,
    "Actie": "Lossen",
    "Klantnr": "A8613",
    "Naam": "HST Asian Market",
    "Land": "FIN",
    "Straat": "Närpesvägen 9",
    "Postcode": 64200,
    "Plaats": "NÄRPES",
    "Gewicht": 856,
    "Euro DV": 0,
    "Blok DV": 1
  },
  {
    "Kenmerk": 80305583,
    "Actie": "Lossen",
    "Klantnr": "A4439",
    "Naam": "Synergy Scandic Oy",
    "Land": "FIN",
    "Straat": "Östman Trading Oy Isokalliontie 3",
    "Postcode": 67600,
    "Plaats": "KOKKOLA",
    "Gewicht": 623,
    "Euro DV": 0,
    "Blok DV": 1
  },
  {
    "Kenmerk": 80305214,
    "Actie": "Lossen",
    "Klantnr": "A6349",
    "Naam": "Aasia Market Oy",
    "Land": "FIN",
    "Straat": "Asemakatu 32",
    "Postcode": 90100,
    "Plaats": "OULU",
    "Gewicht": 668,
    "Euro DV": 0,
    "Blok DV": 1
  },
  {
    "Kenmerk": 80305558,
    "Actie": "Lossen",
    "Klantnr": "A20850",
    "Naam": "AX Utveckling AB",
    "Land": "FIN",
    "Straat": "Masvagen 2",
    "Postcode": 22100,
    "Plaats": "MARIEHAMN",
    "Gewicht": 390,
    "Euro droog/vers": 1,
    "Blok droog/vers": 0,
    "Colli vers": 23
  },
  {
    "Kenmerk": 80305544,
    "Actie": "Lossen",
    "Klantnr": "0000012535",
    "Naam": "Nurmi Dao Oy",
    "Land": "FIN",
    "Straat": "Hämeenkatu 7",
    "Postcode": 20500,
    "Plaats": "TURKU",
    "Gewicht": 673,
    "Euro droog/vers": 0,
    "Blok droog/vers": 1,
    "Colli vers": 16
  },
  {
    "Kenmerk": 80305561,
    "Actie": "Lossen",
    "Klantnr": "0000016367",
    "Naam": "Golden Food Oy",
    "Land": "FIN",
    "Straat": "Kuunsade 10b 43",
    "Postcode": 2210,
    "Plaats": "HELSINKI",
    "Gewicht": 1725,
    "Euro droog/vers": 1,
    "Blok droog/vers": 1,
    "Colli vers": 0
  },
  {
    "Kenmerk": 80305372,
    "Actie": "Lossen",
    "Klantnr": "0000007830",
    "Naam": "Vii-Voan Oy",
    "Land": "FIN",
    "Straat": "Hämeentie 3-5",
    "Postcode": 530,
    "Plaats": "HELSINKI",
    "Gewicht": 1795,
    "Euro droog/vers": 1,
    "Blok droog/vers": 1,
    "Colli vers": 52
  },
  {
    "Kenmerk": 80305255,
    "Actie": "Lossen",
    "Klantnr": "D6676",
    "Naam": "Oy Golden Crop",
    "Land": "FIN",
    "Straat": "Tulppatie 1",
    "Postcode": 880,
    "Plaats": "HELSINKI",
    "Gewicht": 3237,
    "Euro droog/vers": 5,
    "Blok droog/vers": 1,
    "Colli vers": 130
  },
  {
    "Kenmerk": 80305263,
    "Actie": "Lossen",
    "Klantnr": "A7834",
    "Naam": "Spicetown Oy",
    "Land": "FIN",
    "Straat": "Linnanpajantie 26",
    "Postcode": 950,
    "Plaats": "HELSINKI",
    "Gewicht": 12925,
    "Euro droog/vers": 6,
    "Blok droog/vers": 11,
    "Colli vers": 0
  },
  {
    "Kenmerk": 80305527,
    "Actie": "Lossen",
    "Klantnr": "F8815",
    "Naam": "Jiahe Oy",
    "Land": "FIN",
    "Straat": "Lirokuja 4",
    "Postcode": 940,
    "Plaats": "HELSINKI",
    "Gewicht": 3208,
    "Euro droog/vers": 1,
    "Blok droog/vers": 4,
    "Colli vers": 0
  },
  {
    "Kenmerk": 80305250,
    "Actie": "Lossen",
    "Klantnr": "B9679",
    "Naam": "Atusa Trading Oy",
    "Land": "FIN",
    "Straat": "Keinumaenkuja 2",
    "Postcode": 1510,
    "Plaats": "VANTAA",
    "Gewicht": 2789,
    "Euro droog/vers": 3,
    "Blok droog/vers": 1,
    "Colli vers": 47
  },
  {
    "Kenmerk": 80305534,
    "Actie": "Lossen",
    "Klantnr": "B9334",
    "Naam": "Minh Thai Oy",
    "Land": "FIN",
    "Straat": "Tyopajatie 26",
    "Postcode": 6150,
    "Plaats": "PORVOO",
    "Gewicht": 1433,
    "Euro droog/vers": 1,
    "Blok droog/vers": 1,
    "Colli vers": 9
  },
  {
    "Kenmerk": 80305529,
    "Actie": "Lossen",
    "Klantnr": "A9041",
    "Naam": "Singhapan Oy",
    "Land": "FIN",
    "Straat": "Kaarikatu 4C",
    "Postcode": 15100,
    "Plaats": "LAHTI",
    "Gewicht": 725,
    "Euro droog/vers": 2,
    "Blok droog/vers": 0,
    "Colli vers": 32
  },
  {
    "Kenmerk": 80305416,
    "Actie": "Lossen",
    "Klantnr": "A14908",
    "Naam": "Jana Supermarket",
    "Land": "FIN",
    "Straat": "Koskikatu 11",
    "Postcode": 80100,
    "Plaats": "JOENSUU",
    "Gewicht": 816,
    "Euro droog/vers": 0,
    "Blok droog/vers": 1,
    "Colli vers": 13
  },
  {
    "Kenmerk": 80305542,
    "Actie": "Lossen",
    "Klantnr": "0000011795",
    "Naam": "Istanbul Elintarvike Oy",
    "Land": "FIN",
    "Straat": "Pyörönkaari 9",
    "Postcode": 70820,
    "Plaats": "KUOPIO",
    "Gewicht": 745,
    "Euro droog/vers": 1,
    "Blok droog/vers": 0,
    "Colli vers": 22
  },
  {
    "Kenmerk": 80305551,
    "Actie": "Lossen",
    "Klantnr": "C9041",
    "Naam": "Siamtort Jyväskylä",
    "Land": "FIN",
    "Straat": "Vasarakatu 22",
    "Postcode": 40320,
    "Plaats": "JYVÄSKYLÄ",
    "Gewicht": 618,
    "Euro droog/vers": 0,
    "Blok droog/vers": 1,
    "Colli vers": 24
  },
  {
    "Kenmerk": 80305528,
    "Actie": "Lossen",
    "Klantnr": "A11259",
    "Naam": "Thai Thai by Kunkid",
    "Land": "FIN",
    "Straat": "Pinninkatu 30",
    "Postcode": 33100,
    "Plaats": "TAMPERE",
    "Gewicht": 663,
    "Euro droog/vers": 1,
    "Blok droog/vers": 0,
    "Colli vers": 32
  },
  {
    "Kenmerk": 80305199,
    "Actie": "Lossen",
    "Klantnr": "B6349",
    "Naam": "Aasia Market Oy",
    "Land": "FIN",
    "Straat": "Kuninkaankatu 24 L9",
    "Postcode": 33210,
    "Plaats": "TAMPERE",
    "Gewicht": 1308,
    "Euro droog/vers": 0,
    "Blok droog/vers": 2,
    "Colli vers": 50
  },
  {
    "Kenmerk": 80305547,
    "Actie": "Lossen",
    "Klantnr": "0000001424",
    "Naam": "MST Soultions Oy",
    "Land": "FIN",
    "Straat": "Pitkakatu 42",
    "Postcode": 65100,
    "Plaats": "VAASA",
    "Gewicht": 2719,
    "Euro droog/vers": 0,
    "Blok droog/vers": 3,
    "Colli vers": 63
  },
  {
    "Kenmerk": 80305546,
    "Actie": "Lossen",
    "Klantnr": "0000004439",
    "Naam": "Synergy Scandic Oy",
    "Land": "FIN",
    "Straat": "Koulukatu 9",
    "Postcode": 68600,
    "Plaats": "PIETARSAARI",
    "Gewicht": 939,
    "Euro droog/vers": 0,
    "Blok droog/vers": 1,
    "Colli vers": 29
  },
  {
    "Kenmerk": 80305409,
    "Actie": "Lossen",
    "Klantnr": "0000011960",
    "Naam": "Ta Ha Suomi",
    "Land": "FIN",
    "Straat": "Tehtaankatu 43",
    "Postcode": 67100,
    "Plaats": "KOKKOLA",
    "Gewicht": 720,
    "Euro droog/vers": 0,
    "Blok droog/vers": 1,
    "Colli vers": 18
  },
  {
    "Kenmerk": 80305192,
    "Actie": "Lossen",
    "Klantnr": "A6349",
    "Naam": "Aasia Market Oy",
    "Land": "FIN",
    "Straat": "Asemakatu 32",
    "Postcode": 90100,
    "Plaats": "OULU",
    "Gewicht": 1375,
    "Euro droog/vers": 0,
    "Blok droog/vers": 2,
    "Colli vers": 50
  },
  {
    "Kenmerk": 80305385,
    "Actie": "Lossen",
    "Klantnr": "0000004420",
    "Naam": "Asian Säästömarket",
    "Land": "FIN",
    "Straat": "Rovakatu 19, M 1",
    "Postcode": 96200,
    "Plaats": "ROVANIEMI",
    "Gewicht": 696,
    "Euro droog/vers": 0,
    "Blok droog/vers": 1,
    "Colli vers": 44
  }
]